FLOCK 4Q-11             
1 58273U 23174T   26063.19280902  .00037625  00000+0  80166-3 0  9996
2 58273  97.3913 149.7054 0007573 173.3114 186.8237 15.44806147129356
FLOCK 4Q-36             
1 58274U 23174U   26063.19021721  .00046684  00000+0  80699-3 0  9995
2 58274  97.3900 152.3134 0007676 163.6157 196.5345 15.50801762129527
FLOCK 4Q-12             
1 58275U 23174V   26063.20042323  .00109634  00000+0  18656-2 0  9997
2 58275  97.3892 152.2065 0006026 170.9950 189.1411 15.51002402129549
FLOCK 4Q-28             
1 58280U 23174AA  26063.46264798  .00047995  00000+0  89445-3 0  9999
2 58280  97.3920 151.7200 0007234 169.2466 190.8940 15.48655603129502
FLOCK 4Q-27             
1 58282U 23174AC  26063.19997854  .00047510  00000+0  88699-3 0  9990
2 58282  97.3862 150.9953 0006727 165.2224 194.9224 15.48610638129474
FLOCK 4Q-26             
1 58284U 23174AE  26063.18076018  .00049320  00000+0  86400-3 0  9990
2 58284  97.3914 152.3907 0007224 167.6485 192.4945 15.50415210129528
FLOCK 4Q-31             
1 58285U 23174AF  26063.21027516  .00056863  00000+0  10123-2 0  9992
2 58285  97.3956 152.0637 0007852 169.4529 190.6889 15.49919177129489
FLOCK 4Q-30             
1 58286U 23174AG  26063.19902415  .00054567  00000+0  96408-3 0  9990
2 58286  97.3957 152.2318 0007574 165.7440 194.4027 15.50147250129495
PELICAN-1               
1 58296U 23174AS  26063.26021886  .00106769  00000+0  11453-2 0  9991
2 58296  97.3964 157.7700 0008912 253.4850 106.5430 15.63414333129716
FLOCK 4Q-25             
1 58303U 23174AZ  26063.19368054  .00070694  00000+0  10125-2 0  9995
2 58303  97.3875 153.0681 0005282 152.2523 207.9014 15.55935413129614
FLOCK 4Q-29             
1 58304U 23174BA  26063.61197875  .00041568  00000+0  76251-3 0  9995
2 58304  97.3945 152.2585 0007917 156.7291 203.4320 15.49135560129535
FLOCK 4Q-22             
1 58306U 23174BC  26063.19386865  .00057653  00000+0  96521-3 0  9993
2 58306  97.3860 151.9971 0006659 161.2229 198.9270 15.51662649129541
FLOCK 4Q-23             
1 58307U 23174BD  26063.22621264  .00071033  00000+0  10618-2 0  9993
2 58307  97.3969 153.5586 0007008 157.9548 202.2008 15.54753621129583
FLOCK 4Q-33             
1 58308U 23174BE  26063.24148824  .00049265  00000+0  85235-3 0  9992
2 58308  97.3888 151.9870 0007478 151.4077 208.7586 15.50766394129533
FLOCK 4Q-35             
1 58309U 23174BF  26063.48302158  .00047768  00000+0  85587-3 0  9997
2 58309  97.3909 152.4071 0008295 163.7020 196.4500 15.49773673129556
FLOCK 4Q-34             
1 58316U 23174BN  26063.23800233  .00071099  00000+0  10555-2 0  9991
2 58316  97.3871 152.9757 0006843 159.5044 200.6486 15.54943889129593
